MAKERSAT 0              
1 43016U 17073D   26036.72273455  .00037894  00000+0  11805-2 0  9991
2 43016  97.4833 278.6217 0121836  19.4953 341.0885 15.26116650446371
SIRION PATHFINDER-2     
1 43759U 18099B   26037.11174170  .00008049  00000+0  45713-3 0  9998
2 43759  97.4450  89.2804 0009916  41.7416 318.4570 15.13138769392790
CORVUS BC4              
1 43767U 18099K   26036.74867600  .00009104  00000+0  54408-3 0  9996
2 43767  97.4261  83.5530 0010015  94.6456 265.5918 15.11255711392541
SPACEBEE-7              
1 43816U 18099BL  26037.17060471  .00311213  00000+0  17968-2 0  9996
2 43816  97.4567 121.2276 0004745 288.3842  71.6908 15.77774183394207
SHIELDS 1               
1 43850U 18104B   26036.97803109  .00931427  57737-3  64544-3 0  9992
2 43850  84.9931 222.6664 0003698 279.3416  80.7459 16.16631399399461
M2 PATHFINDER           
1 45727U 20037E   26036.94535550  .00005731  00000+0  41942-3 0  9998
2 45727  97.8135 226.7258 0011051 234.8974 125.1216 15.03943687305762
NETSAT-4                
1 46504U 20068U   26036.94044695  .00026641  00000+0  68913-3 0  9991
2 46504  97.8631  35.1045 0008427  75.8694 284.3486 15.39034390295551
NETSAT-3                
1 46505U 20068V   26036.96796627  .00026399  00000+0  71405-3 0  9993
2 46505  97.8658  33.5477 0008361  88.0158 272.2043 15.37659603295485
NETSAT-1                
1 46506U 20068W   26037.19195076  .00020986  00000+0  70244-3 0  9997
2 46506  97.8720  29.5460 0007981 101.5205 258.6932 15.30963489295235
NETSAT-2                
1 46507U 20068X   26036.98038100  .00031190  00000+0  78233-3 0  9993
2 46507  97.8642  34.6924 0007128  97.0076 263.1980 15.39954248295505
WILDTRACKCUBE-SIMBA     
1 47941U 21022K   26036.82214838  .00355522  00000+0  14163-2 0  9993
2 47941  97.3994 316.0845 0008645 116.6269 243.5888 15.85699147270753
GREENCUBE (IO-117)      
1 53109U 22080E   26036.82714451 -.00000003  00000+0  00000+0 0  9991
2 53109  70.1644 343.9250 0009171 317.3784  42.6164  6.42583143 83627
SITRO-AIS 5 (KATYS)     
1 57176U 23091L   26037.21736567  .00021265  00000+0  82255-3 0  9996
2 57176  97.5244 100.0672 0011809 198.9297 161.1504 15.26169591144348
SITRO-AIS 6 (CHIRKIN)   
1 57192U 23091AC  26037.20073838  .00013365  00000+0  55452-3 0  9999
2 57192  97.5247  99.7628 0012033 198.0248 162.0564 15.23919626144324
SITRO-AIS 8 (ANOKHIN)   
1 57193U 23091AD  26037.17945537  .00029768  00000+0  10773-2 0  9990
2 57193  97.5236 101.1418 0011128 195.9939 164.0951 15.28307502144416
SITRO-AIS 7 (FARTUSHNIY)
1 57194U 23091AE  26037.18051190  .00012250  00000+0  51192-3 0  9994
2 57194  97.5247  99.6249 0011773 199.2785 160.8008 15.23702278144314
SITRO-AIS 10 (BURDAEV)  
1 57199U 23091AK  26037.18127148  .00034177  00000+0  10579-2 0  9991
2 57199  97.5249 105.0017 0007770 172.0169 188.1198 15.33366745144659
SITRO-AIS 9 (SHCHUKIN)  
1 57201U 23091AM  26037.17210253  .00034924  00000+0  10928-2 0  9992
2 57201  97.5249 104.8096 0007809 173.0210 187.1142 15.33016178144647
SITRO-AIS 12 (SMIRENNIY)
1 57204U 23091AQ  26037.18546920  .00035577  00000+0  11046-2 0  9996
2 57204  97.5259 105.2156 0007779 166.2642 193.8813 15.33262204144666
SITRO-AIS 11 (SHEFFER)  
1 57208U 23091AU  26037.16533616  .00035657  00000+0  10962-2 0  9991
2 57208  97.5256 105.3703 0007680 165.9763 194.1693 15.33576308144671
SITRO-AIS 25            
1 59066U 24039R   26037.20885972  .00008961  00000+0  70749-3 0  9996
2 59066  95.3950 145.1374 0149375  66.0727 295.6063 14.92343057105185
SITRO-AIS 26            
1 59067U 24039S   26037.19336606  .00008790  00000+0  69664-3 0  9994
2 59067  95.3955 145.0495 0149806  66.5873 295.1023 14.92162828105175
SITRO-AIS 27            
1 59068U 24039T   26037.19897973  .00008952  00000+0  70381-3 0  9992
2 59068  95.3954 145.2673 0148872  65.4684 296.1978 14.92550502105197
SITRO-AIS 28            
1 59071U 24039U   26037.24648859  .00010033  00000+0  78773-3 0  9995
2 59071  95.3954 145.3399 0148821  65.2040 296.4583 14.92586363105206
GRBBETA                 
1 60237U 24128C   26037.16026634  .00007335  00000+0  50659-3 0  9996
2 60237  61.9916 315.5833 0053916 107.7715 252.9271 15.05420826 86535
OOV-CUBE (TUBSAT-30)    
1 60240U 24128F   26036.94331182  .00004466  00000+0  34317-3 0  9997
2 60240  61.9969 322.9767 0056653 105.7361 254.9988 15.02020243 86398
ROBUSTA-3A (MEDITERRAN*)
1 60243U 24128J   26036.93936662  .00015627  00000+0  94989-3 0  9995
2 60243  61.9881 311.6333 0054341 101.9687 258.7506 15.09436175 86591
LASARSAT                
1 62391U 24247Q   26036.68676005  .00044703  00000+0  11712-2 0  9996
2 62391  44.9760 276.6095 0002388 214.0199 146.0535 15.38045753 63010
CROCUBE                 
1 62394U 24247T   26036.99781542  .00044088  00000+0  11195-2 0  9997
2 62394  44.9735 273.7889 0002212 191.4907 168.5929 15.39013829 63077
